<?xml version="1.0" encoding="UTF-8"?>
<ndm xmlns:xsi="http://www.w3.org/2001/XMLSchema-instance" xsi:noNamespaceSchemaLocation="https://sanaregistry.org/r/ndmxml_unqualified/ndmxml-2.0.0-master-2.0.xsd">
<omm id="CCSDS_OMM_VERS" version="2.0">
<header><CREATION_DATE/><ORIGINATOR/></header><body><segment><metadata><OBJECT_NAME>ORBCOMM FM37</OBJECT_NAME><OBJECT_ID>2008-031E</OBJECT_ID><CENTER_NAME>EARTH</CENTER_NAME><REF_FRAME>TEME</REF_FRAME><TIME_SYSTEM>UTC</TIME_SYSTEM><MEAN_ELEMENT_THEORY>SGP4</MEAN_ELEMENT_THEORY></metadata><data><meanElements><EPOCH>2025-09-10T09:51:51.437664</EPOCH><MEAN_MOTION>14.80045070</MEAN_MOTION><ECCENTRICITY>.00051602</ECCENTRICITY><INCLINATION>48.4404</INCLINATION><RA_OF_ASC_NODE>298.4014</RA_OF_ASC_NODE><ARG_OF_PERICENTER>12.8502</ARG_OF_PERICENTER><MEAN_ANOMALY>0.6902</MEAN_ANOMALY></meanElements><tleParameters><EPHEMERIS_TYPE>0</EPHEMERIS_TYPE><CLASSIFICATION_TYPE>U</CLASSIFICATION_TYPE><NORAD_CAT_ID>33064</NORAD_CAT_ID><ELEMENT_SET_NO>999</ELEMENT_SET_NO><REV_AT_EPOCH>92667</REV_AT_EPOCH><BSTAR>.20070007E-3</BSTAR><MEAN_MOTION_DOT>.1323E-4</MEAN_MOTION_DOT><MEAN_MOTION_DDOT>0</MEAN_MOTION_DDOT></tleParameters></data></segment></body></omm>
<omm id="CCSDS_OMM_VERS" version="2.0">
<header><CREATION_DATE/><ORIGINATOR/></header><body><segment><metadata><OBJECT_NAME>ORBCOMM FM40</OBJECT_NAME><OBJECT_ID>2008-031F</OBJECT_ID><CENTER_NAME>EARTH</CENTER_NAME><REF_FRAME>TEME</REF_FRAME><TIME_SYSTEM>UTC</TIME_SYSTEM><MEAN_ELEMENT_THEORY>SGP4</MEAN_ELEMENT_THEORY></metadata><data><meanElements><EPOCH>2025-09-10T09:26:54.193920</EPOCH><MEAN_MOTION>14.82378094</MEAN_MOTION><ECCENTRICITY>.00061442</ECCENTRICITY><INCLINATION>48.4404</INCLINATION><RA_OF_ASC_NODE>281.0721</RA_OF_ASC_NODE><ARG_OF_PERICENTER>28.4923</ARG_OF_PERICENTER><MEAN_ANOMALY>345.7826</MEAN_ANOMALY></meanElements><tleParameters><EPHEMERIS_TYPE>0</EPHEMERIS_TYPE><CLASSIFICATION_TYPE>U</CLASSIFICATION_TYPE><NORAD_CAT_ID>33065</NORAD_CAT_ID><ELEMENT_SET_NO>999</ELEMENT_SET_NO><REV_AT_EPOCH>92680</REV_AT_EPOCH><BSTAR>.22826514E-3</BSTAR><MEAN_MOTION_DOT>.163E-4</MEAN_MOTION_DOT><MEAN_MOTION_DDOT>0</MEAN_MOTION_DDOT></tleParameters></data></segment></body></omm>
<omm id="CCSDS_OMM_VERS" version="2.0">
<header><CREATION_DATE/><ORIGINATOR/></header><body><segment><metadata><OBJECT_NAME>VESSELSAT 1</OBJECT_NAME><OBJECT_ID>2011-058C</OBJECT_ID><CENTER_NAME>EARTH</CENTER_NAME><REF_FRAME>TEME</REF_FRAME><TIME_SYSTEM>UTC</TIME_SYSTEM><MEAN_ELEMENT_THEORY>SGP4</MEAN_ELEMENT_THEORY></metadata><data><meanElements><EPOCH>2025-09-10T10:26:38.640480</EPOCH><MEAN_MOTION>14.11368670</MEAN_MOTION><ECCENTRICITY>.00137815</ECCENTRICITY><INCLINATION>19.9623</INCLINATION><RA_OF_ASC_NODE>298.0498</RA_OF_ASC_NODE><ARG_OF_PERICENTER>44.7853</ARG_OF_PERICENTER><MEAN_ANOMALY>315.3662</MEAN_ANOMALY></meanElements><tleParameters><EPHEMERIS_TYPE>0</EPHEMERIS_TYPE><CLASSIFICATION_TYPE>U</CLASSIFICATION_TYPE><NORAD_CAT_ID>37840</NORAD_CAT_ID><ELEMENT_SET_NO>999</ELEMENT_SET_NO><REV_AT_EPOCH>71836</REV_AT_EPOCH><BSTAR>.48184495E-4</BSTAR><MEAN_MOTION_DOT>.353E-5</MEAN_MOTION_DOT><MEAN_MOTION_DDOT>0</MEAN_MOTION_DDOT></tleParameters></data></segment></body></omm>
<omm id="CCSDS_OMM_VERS" version="2.0">
<header><CREATION_DATE/><ORIGINATOR/></header><body><segment><metadata><OBJECT_NAME>ORBCOMM FM109</OBJECT_NAME><OBJECT_ID>2014-040A</OBJECT_ID><CENTER_NAME>EARTH</CENTER_NAME><REF_FRAME>TEME</REF_FRAME><TIME_SYSTEM>UTC</TIME_SYSTEM><MEAN_ELEMENT_THEORY>SGP4</MEAN_ELEMENT_THEORY></metadata><data><meanElements><EPOCH>2025-09-10T10:04:31.656576</EPOCH><MEAN_MOTION>14.58293396</MEAN_MOTION><ECCENTRICITY>.00014611</ECCENTRICITY><INCLINATION>47.0048</INCLINATION><RA_OF_ASC_NODE>333.7220</RA_OF_ASC_NODE><ARG_OF_PERICENTER>336.5260</ARG_OF_PERICENTER><MEAN_ANOMALY>23.5558</MEAN_ANOMALY></meanElements><tleParameters><EPHEMERIS_TYPE>0</EPHEMERIS_TYPE><CLASSIFICATION_TYPE>U</CLASSIFICATION_TYPE><NORAD_CAT_ID>40086</NORAD_CAT_ID><ELEMENT_SET_NO>999</ELEMENT_SET_NO><REV_AT_EPOCH>59350</REV_AT_EPOCH><BSTAR>.13841403E-3</BSTAR><MEAN_MOTION_DOT>.476E-5</MEAN_MOTION_DOT><MEAN_MOTION_DDOT>0</MEAN_MOTION_DDOT></tleParameters></data></segment></body></omm>
<omm id="CCSDS_OMM_VERS" version="2.0">
<header><CREATION_DATE/><ORIGINATOR/></header><body><segment><metadata><OBJECT_NAME>ORBCOMM FM107</OBJECT_NAME><OBJECT_ID>2014-040B</OBJECT_ID><CENTER_NAME>EARTH</CENTER_NAME><REF_FRAME>TEME</REF_FRAME><TIME_SYSTEM>UTC</TIME_SYSTEM><MEAN_ELEMENT_THEORY>SGP4</MEAN_ELEMENT_THEORY></metadata><data><meanElements><EPOCH>2025-09-10T09:00:50.519808</EPOCH><MEAN_MOTION>14.58375000</MEAN_MOTION><ECCENTRICITY>.00018864</ECCENTRICITY><INCLINATION>47.0065</INCLINATION><RA_OF_ASC_NODE>334.8610</RA_OF_ASC_NODE><ARG_OF_PERICENTER>285.0672</ARG_OF_PERICENTER><MEAN_ANOMALY>75.0004</MEAN_ANOMALY></meanElements><tleParameters><EPHEMERIS_TYPE>0</EPHEMERIS_TYPE><CLASSIFICATION_TYPE>U</CLASSIFICATION_TYPE><NORAD_CAT_ID>40087</NORAD_CAT_ID><ELEMENT_SET_NO>999</ELEMENT_SET_NO><REV_AT_EPOCH>59357</REV_AT_EPOCH><BSTAR>.16234273E-3</BSTAR><MEAN_MOTION_DOT>.589E-5</MEAN_MOTION_DOT><MEAN_MOTION_DDOT>0</MEAN_MOTION_DDOT></tleParameters></data></segment></body></omm>
<omm id="CCSDS_OMM_VERS" version="2.0">
<header><CREATION_DATE/><ORIGINATOR/></header><body><segment><metadata><OBJECT_NAME>ORBCOMM FM106</OBJECT_NAME><OBJECT_ID>2014-040C</OBJECT_ID><CENTER_NAME>EARTH</CENTER_NAME><REF_FRAME>TEME</REF_FRAME><TIME_SYSTEM>UTC</TIME_SYSTEM><MEAN_ELEMENT_THEORY>SGP4</MEAN_ELEMENT_THEORY></metadata><data><meanElements><EPOCH>2025-09-10T10:08:35.875680</EPOCH><MEAN_MOTION>14.69631998</MEAN_MOTION><ECCENTRICITY>.00162304</ECCENTRICITY><INCLINATION>47.0599</INCLINATION><RA_OF_ASC_NODE>149.9010</RA_OF_ASC_NODE><ARG_OF_PERICENTER>102.5142</ARG_OF_PERICENTER><MEAN_ANOMALY>257.7566</MEAN_ANOMALY></meanElements><tleParameters><EPHEMERIS_TYPE>0</EPHEMERIS_TYPE><CLASSIFICATION_TYPE>U</CLASSIFICATION_TYPE><NORAD_CAT_ID>40088</NORAD_CAT_ID><ELEMENT_SET_NO>999</ELEMENT_SET_NO><REV_AT_EPOCH>59601</REV_AT_EPOCH><BSTAR>.18502509E-3</BSTAR><MEAN_MOTION_DOT>.923E-5</MEAN_MOTION_DOT><MEAN_MOTION_DDOT>0</MEAN_MOTION_DDOT></tleParameters></data></segment></body></omm>
<omm id="CCSDS_OMM_VERS" version="2.0">
<header><CREATION_DATE/><ORIGINATOR/></header><body><segment><metadata><OBJECT_NAME>ORBCOMM FM111</OBJECT_NAME><OBJECT_ID>2014-040D</OBJECT_ID><CENTER_NAME>EARTH</CENTER_NAME><REF_FRAME>TEME</REF_FRAME><TIME_SYSTEM>UTC</TIME_SYSTEM><MEAN_ELEMENT_THEORY>SGP4</MEAN_ELEMENT_THEORY></metadata><data><meanElements><EPOCH>2025-09-10T10:38:38.508864</EPOCH><MEAN_MOTION>14.86771404</MEAN_MOTION><ECCENTRICITY>.00309549</ECCENTRICITY><INCLINATION>47.0027</INCLINATION><RA_OF_ASC_NODE>348.3904</RA_OF_ASC_NODE><ARG_OF_PERICENTER>241.9705</ARG_OF_PERICENTER><MEAN_ANOMALY>117.8060</MEAN_ANOMALY></meanElements><tleParameters><EPHEMERIS_TYPE>0</EPHEMERIS_TYPE><CLASSIFICATION_TYPE>U</CLASSIFICATION_TYPE><NORAD_CAT_ID>40089</NORAD_CAT_ID><ELEMENT_SET_NO>999</ELEMENT_SET_NO><REV_AT_EPOCH>60291</REV_AT_EPOCH><BSTAR>.25526495E-3</BSTAR><MEAN_MOTION_DOT>.2097E-4</MEAN_MOTION_DOT><MEAN_MOTION_DDOT>0</MEAN_MOTION_DDOT></tleParameters></data></segment></body></omm>
<omm id="CCSDS_OMM_VERS" version="2.0">
<header><CREATION_DATE/><ORIGINATOR/></header><body><segment><metadata><OBJECT_NAME>ORBCOMM FM104</OBJECT_NAME><OBJECT_ID>2014-040E</OBJECT_ID><CENTER_NAME>EARTH</CENTER_NAME><REF_FRAME>TEME</REF_FRAME><TIME_SYSTEM>UTC</TIME_SYSTEM><MEAN_ELEMENT_THEORY>SGP4</MEAN_ELEMENT_THEORY></metadata><data><meanElements><EPOCH>2025-09-10T09:20:33.601056</EPOCH><MEAN_MOTION>14.56764294</MEAN_MOTION><ECCENTRICITY>.00171206</ECCENTRICITY><INCLINATION>47.0067</INCLINATION><RA_OF_ASC_NODE>9.4324</RA_OF_ASC_NODE><ARG_OF_PERICENTER>234.9263</ARG_OF_PERICENTER><MEAN_ANOMALY>125.0017</MEAN_ANOMALY></meanElements><tleParameters><EPHEMERIS_TYPE>0</EPHEMERIS_TYPE><CLASSIFICATION_TYPE>U</CLASSIFICATION_TYPE><NORAD_CAT_ID>40090</NORAD_CAT_ID><ELEMENT_SET_NO>999</ELEMENT_SET_NO><REV_AT_EPOCH>59304</REV_AT_EPOCH><BSTAR>.1642951E-3</BSTAR><MEAN_MOTION_DOT>.573E-5</MEAN_MOTION_DOT><MEAN_MOTION_DDOT>0</MEAN_MOTION_DDOT></tleParameters></data></segment></body></omm>

</ndm>
