ORBCOMM FM37            
1 33064U 08031E   25253.41101201  .00001323  00000+0  20070-3 0  9995
2 33064  48.4404 298.4014 0005160  12.8502   0.6902 14.80045070926676
ORBCOMM FM40            
1 33065U 08031F   25253.39368280  .00001630  00000+0  22827-3 0  9998
2 33065  48.4404 281.0721 0006144  28.4923 345.7826 14.82378094926803
VESSELSAT 1             
1 37840U 11058C   25253.43516945  .00000353  00000+0  48184-4 0  9990
2 37840  19.9623 298.0498 0013781  44.7853 315.3662 14.11368670718363
ORBCOMM FM109           
1 40086U 14040A   25253.41981084  .00000476  00000+0  13841-3 0  9995
2 40086  47.0048 333.7220 0001461 336.5260  23.5558 14.58293396593500
ORBCOMM FM107           
1 40087U 14040B   25253.37558472  .00000589  00000+0  16234-3 0  9996
2 40087  47.0065 334.8610 0001886 285.0672  75.0004 14.58375000593579
ORBCOMM FM106           
1 40088U 14040C   25253.42263745  .00000923  00000+0  18503-3 0  9992
2 40088  47.0599 149.9010 0016230 102.5142 257.7566 14.69631998596012
ORBCOMM FM111           
1 40089U 14040D   25253.44350126  .00002097  00000+0  25526-3 0  9992
2 40089  47.0027 348.3904 0030954 241.9705 117.8060 14.86771404602916
ORBCOMM FM104           
1 40090U 14040E   25253.38927779  .00000573  00000+0  16430-3 0  9992
2 40090  47.0067   9.4324 0017120 234.9263 125.0017 14.56764294593046
